{
    "links": {
        "self": "http://www.neowsapp.com/rest/v1/neo/54095185?api_key=iIulBulltgU6a56xZRHN4H3l9WmuAYTsLGpBGhQ2"
    },
    "id": "54095185",
    "neo_reference_id": "54095185",
    "name": "(2018 ST13)",
    "designation": "2018 ST13",
    "nasa_jpl_url": "http://ssd.jpl.nasa.gov/sbdb.cgi?sstr=54095185",
    "absolute_magnitude_h": 23.632,
    "estimated_diameter": {
        "kilometers": {
            "estimated_diameter_min": 0.0499062545,
            "estimated_diameter_max": 0.1115937775
        },
        "meters": {
            "estimated_diameter_min": 49.9062544573,
            "estimated_diameter_max": 111.5937774689
        },
        "miles": {
            "estimated_diameter_min": 0.0310102992,
            "estimated_diameter_max": 0.0693411371
        },
        "feet": {
            "estimated_diameter_min": 163.7344358736,
            "estimated_diameter_max": 366.121328871
        }
    },
    "is_potentially_hazardous_asteroid": false,
    "close_approach_data": [
        {
            "close_approach_date": "2018-07-23",
            "close_approach_date_full": "2018-Jul-23 01:28",
            "epoch_date_close_approach": 1532309280000,
            "relative_velocity": {
                "kilometers_per_second": "6.9204885874",
                "kilometers_per_hour": "24913.7589146349",
                "miles_per_hour": "15480.4409211519"
            },
            "miss_distance": {
                "astronomical": "0.0327005532",
                "lunar": "12.7205151948",
                "kilometers": "4891933.106541684",
                "miles": "3039706.2793518792"
            },
            "orbiting_body": "Earth"
        }
    ],
    "orbital_data": {
        "orbit_id": "1",
        "orbit_determination_date": "2020-11-28 05:19:35",
        "first_observation_date": "2018-09-17",
        "last_observation_date": "2018-09-30",
        "data_arc_in_days": 13,
        "observations_used": 20,
        "orbit_uncertainty": "9",
        "minimum_orbit_intersection": ".0303393",
        "jupiter_tisserand_invariant": "3.712",
        "epoch_osculation": "2458386.5",
        "eccentricity": ".4842719757687408",
        "semi_major_axis": "1.973992414407397",
        "inclination": "3.113438999496219",
        "ascending_node_longitude": "335.0211639552479",
        "orbital_period": "1013.01679585113",
        "perihelion_distance": "1.01804320772982",
        "perihelion_argument": "316.3939967127881",
        "aphelion_distance": "2.929941621084974",
        "perihelion_time": "2458315.003853384234",
        "mean_anomaly": "25.40788354851545",
        "mean_motion": ".3553741670171721",
        "equinox": "J2000",
        "orbit_class": {
            "orbit_class_type": "AMO",
            "orbit_class_description": "Near-Earth asteroid orbits similar to that of 1221 Amor",
            "orbit_class_range": "1.017 AU < q (perihelion) < 1.3 AU"
        }
    },
    "is_sentry_object": false
}